ALOS-4 (DAICHI-4)       
1 60182U 24123A   24197.87400383  .00003506  00000+0  47517-3 0  9995
2 60182  97.8749 294.1422 0001981 104.0030 256.1402 14.79553917  2186
